start=new Date('2023-02-08T00:00:00.000Z').valueOf();
sats=[{"OBJECT_ID":"2022-136AV","MEAN_MOTION_DOT":"0.00000895","BSTAR":"0.00007426200000","MEAN_MOTION":"15.08854383","APOAPSIS":"540.607","CLASSIFICATION_TYPE":"U","TIME_SYSTEM":"UTC","TLE_LINE2":"2 54094  53.2189 350.6984 0001309  87.9215 272.1927 15.08854383 16936","OBJECT_NAME":"STARLINK-5219","CENTER_NAME":"EARTH","EPHEMERIS_TYPE":"0","SITE":"AFETR","RA_OF_ASC_NODE":"350.6984","SEMIMAJOR_AXIS":"6917.836","INCLINATION":"53.2189","LAUNCH_DATE":"2022-10-20","NORAD_CAT_ID":"54094","TLE_LINE1":"1 54094U 22136AV  23038.25853696  .00000895  00000-0  74262-4 0  9993","ARG_OF_PERICENTER":"87.9215","ELEMENT_SET_NO":"999","COUNTRY_CODE":"US","RCS_SIZE":"LARGE","MEAN_ANOMALY":"272.1927","MEAN_ELEMENT_THEORY":"SGP4","OBJECT_TYPE":"PAYLOAD","REV_AT_EPOCH":"1693","MEAN_MOTION_DDOT":"0.0000000000000","EPOCH":"2023-02-07T06:12:17.593344","ECCENTRICITY":"0.00013090","GP_ID":"224707588","PERIOD":"95.437","REF_FRAME":"TEME","DECAY_DATE":null,"FILE":"3777208","PERIAPSIS":"538.796"},{"PERIOD":"95.437","GP_ID":"224720227","REF_FRAME":"TEME","EPOCH":"2023-02-07T23:20:19.400064","ECCENTRICITY":"0.00016660","FILE":"3777935","PERIAPSIS":"538.578","DECAY_DATE":null,"TLE_LINE1":"1 54095U 22136AW  23038.97244676 -.00000924  00000-0 -39978-4 0  9995","ARG_OF_PERICENTER":"80.5311","ELEMENT_SET_NO":"999","COUNTRY_CODE":"US","NORAD_CAT_ID":"54095","REV_AT_EPOCH":"1751","MEAN_MOTION_DDOT":"0.0000000000000","RCS_SIZE":"LARGE","MEAN_ANOMALY":"279.5869","MEAN_ELEMENT_THEORY":"SGP4","OBJECT_TYPE":"PAYLOAD","RA_OF_ASC_NODE":"347.3289","SEMIMAJOR_AXIS":"6917.865","EPHEMERIS_TYPE":"0","SITE":"AFETR","LAUNCH_DATE":"2022-10-20","INCLINATION":"53.2180","MEAN_MOTION":"15.08845026","BSTAR":"-0.00003997800000","APOAPSIS":"540.883","TIME_SYSTEM":"UTC","CLASSIFICATION_TYPE":"U","OBJECT_ID":"2022-136AW","MEAN_MOTION_DOT":"-0.00000924","OBJECT_NAME":"STARLINK-5193","CENTER_NAME":"EARTH","TLE_LINE2":"2 54095  53.2180 347.3289 0001666  80.5311 279.5869 15.08845026 17516"},{"LAUNCH_DATE":"2022-10-20","INCLINATION":"53.2201","RA_OF_ASC_NODE":"350.6724","SEMIMAJOR_AXIS":"6917.812","EPHEMERIS_TYPE":"0","SITE":"AFETR","OBJECT_NAME":"STARLINK-5188","CENTER_NAME":"EARTH","TLE_LINE2":"2 54096  53.2201 350.6724 0001308  82.1744 277.9397 15.08862222 16933","APOAPSIS":"540.582","CLASSIFICATION_TYPE":"U","TIME_SYSTEM":"UTC","BSTAR":"0.00019266000000","MEAN_MOTION":"15.08862222","MEAN_MOTION_DOT":"0.00002781","OBJECT_ID":"2022-136AX","FILE":"3777208","PERIAPSIS":"538.773","DECAY_DATE":null,"REF_FRAME":"TEME","GP_ID":"224706619","PERIOD":"95.436","ECCENTRICITY":"0.00013080","EPOCH":"2023-02-07T06:06:58.747968","REV_AT_EPOCH":"1693","MEAN_MOTION_DDOT":"0.0000000000000","OBJECT_TYPE":"PAYLOAD","RCS_SIZE":"LARGE","MEAN_ELEMENT_THEORY":"SGP4","MEAN_ANOMALY":"277.9397","ELEMENT_SET_NO":"999","COUNTRY_CODE":"US","TLE_LINE1":"1 54096U 22136AX  23038.25484662  .00002781  00000-0  19266-3 0  9996","ARG_OF_PERICENTER":"82.1744","NORAD_CAT_ID":"54096"},{"MEAN_MOTION":"15.37848638","BSTAR":"-0.02754600000000","APOAPSIS":"453.397","CLASSIFICATION_TYPE":"U","TIME_SYSTEM":"UTC","OBJECT_ID":"2022-136AY","MEAN_MOTION_DOT":"-0.00951017","OBJECT_NAME":"STARLINK-5197","CENTER_NAME":"EARTH","TLE_LINE2":"2 54097  53.2142 324.2769 0001351  91.9008 201.9752 15.37848638  1307","RA_OF_ASC_NODE":"324.2769","SEMIMAJOR_AXIS":"6830.609","EPHEMERIS_TYPE":"0","SITE":"AFETR","LAUNCH_DATE":"2022-10-20","INCLINATION":"53.2142","TLE_LINE1":"1 54097U 22136AY  23038.91667824 -.00951017  00000-0 -27546-1 0  9998","ARG_OF_PERICENTER":"91.9008","ELEMENT_SET_NO":"999","COUNTRY_CODE":"US","NORAD_CAT_ID":"54097","REV_AT_EPOCH":"130","MEAN_MOTION_DDOT":"0.0000000000000","RCS_SIZE":"LARGE","MEAN_ANOMALY":"201.9752","MEAN_ELEMENT_THEORY":"SGP4","OBJECT_TYPE":"PAYLOAD","GP_ID":"224745534","PERIOD":"93.637","REF_FRAME":"TEME","EPOCH":"2023-02-07T22:00:00.999936","ECCENTRICITY":"0.00013510","FILE":"3777976","PERIAPSIS":"451.552","DECAY_DATE":null},{"TLE_LINE2":"2 54098  53.2198 350.5845 0001054 108.5791 251.5316 15.08853918 16937","OBJECT_NAME":"STARLINK-5217","CENTER_NAME":"EARTH","MEAN_MOTION_DOT":"0.00001635","OBJECT_ID":"2022-136AZ","APOAPSIS":"540.432","TIME_SYSTEM":"UTC","CLASSIFICATION_TYPE":"U","BSTAR":"0.00012076000000","MEAN_MOTION":"15.08853918","INCLINATION":"53.2198","LAUNCH_DATE":"2022-10-20","EPHEMERIS_TYPE":"0","SITE":"AFETR","RA_OF_ASC_NODE":"350.5845","SEMIMAJOR_AXIS":"6917.838","OBJECT_TYPE":"PAYLOAD","RCS_SIZE":"LARGE","MEAN_ANOMALY":"251.5316","MEAN_ELEMENT_THEORY":"SGP4","REV_AT_EPOCH":"1693","MEAN_MOTION_DDOT":"0.0000000000000","NORAD_CAT_ID":"54098","ELEMENT_SET_NO":"999","COUNTRY_CODE":"US","TLE_LINE1":"1 54098U 22136AZ  23038.24011134  .00001635  00000-0  12076-3 0  9996","ARG_OF_PERICENTER":"108.5791","DECAY_DATE":null,"FILE":"3777208","PERIAPSIS":"538.974","EPOCH":"2023-02-07T05:45:45.619776","ECCENTRICITY":"0.00010540","REF_FRAME":"TEME","GP_ID":"224708070","PERIOD":"95.437"},{"PERIAPSIS":"538.931","FILE":"3777976","DECAY_DATE":null,"REF_FRAME":"TEME","PERIOD":"95.437","GP_ID":"224747035","ECCENTRICITY":"0.00011540","EPOCH":"2023-02-07T21:29:01.267584","MEAN_MOTION_DDOT":"0.0000000000000","REV_AT_EPOCH":"1703","OBJECT_TYPE":"PAYLOAD","MEAN_ELEMENT_THEORY":"SGP4","MEAN_ANOMALY":"268.8737","RCS_SIZE":"LARGE","COUNTRY_CODE":"US","ELEMENT_SET_NO":"999","ARG_OF_PERICENTER":"91.2387","TLE_LINE1":"1 54099U 22136BA  23038.89515356 -.00001596  00000-0 -82216-4 0  9995","NORAD_CAT_ID":"54099","LAUNCH_DATE":"2022-10-20","INCLINATION":"53.2191","SEMIMAJOR_AXIS":"6917.865","RA_OF_ASC_NODE":"347.5568","SITE":"AFETR","EPHEMERIS_TYPE":"0","CENTER_NAME":"EARTH","OBJECT_NAME":"STARLINK-5198","TLE_LINE2":"2 54099  53.2191 347.5568 0001154  91.2387 268.8737 15.08845115 17039","TIME_SYSTEM":"UTC","CLASSIFICATION_TYPE":"U","APOAPSIS":"540.528","BSTAR":"-0.00008221600000","MEAN_MOTION":"15.08845115","MEAN_MOTION_DOT":"-0.00001596","OBJECT_ID":"2022-136BA"},{"REV_AT_EPOCH":"1694","MEAN_MOTION_DDOT":"0.0000000000000","OBJECT_TYPE":"PAYLOAD","RCS_SIZE":"LARGE","MEAN_ANOMALY":"270.7789","MEAN_ELEMENT_THEORY":"SGP4","ELEMENT_SET_NO":"999","COUNTRY_CODE":"US","TLE_LINE1":"1 54100U 22136BB  23038.31372442  .00003038  00000-0  20882-3 0  9993","ARG_OF_PERICENTER":"89.3363","NORAD_CAT_ID":"54100","FILE":"3777208","PERIAPSIS":"538.731","DECAY_DATE":null,"REF_FRAME":"TEME","GP_ID":"224707117","PERIOD":"95.437","ECCENTRICITY":"0.00013950","EPOCH":"2023-02-07T07:31:45.789888","OBJECT_NAME":"STARLINK-5185","CENTER_NAME":"EARTH","TLE_LINE2":"2 54100  53.2197 350.3280 0001395  89.3363 270.7789 15.08856009 16942","APOAPSIS":"540.661","CLASSIFICATION_TYPE":"U","TIME_SYSTEM":"UTC","BSTAR":"0.00020882000000","MEAN_MOTION":"15.08856009","MEAN_MOTION_DOT":"0.00003038","OBJECT_ID":"2022-136BB","LAUNCH_DATE":"2022-10-20","INCLINATION":"53.2197","RA_OF_ASC_NODE":"350.3280","SEMIMAJOR_AXIS":"6917.831","SITE":"AFETR","EPHEMERIS_TYPE":"0"},{"LAUNCH_DATE":"2022-10-20","INCLINATION":"53.2171","SEMIMAJOR_AXIS":"6917.888","RA_OF_ASC_NODE":"332.3962","EPHEMERIS_TYPE":"0","SITE":"AFETR","CENTER_NAME":"EARTH","OBJECT_NAME":"STARLINK-5204","TLE_LINE2":"2 54101  53.2171 332.3962 0001170 101.3488 258.7636 15.08837390 17722","MEAN_MOTION":"15.08837390","BSTAR":"-0.00006048000000","TIME_SYSTEM":"UTC","CLASSIFICATION_TYPE":"U","APOAPSIS":"540.563","OBJECT_ID":"2022-136BC","MEAN_MOTION_DOT":"-0.00001250","PERIAPSIS":"538.944","FILE":"3777948","DECAY_DATE":null,"GP_ID":"224719859","PERIOD":"95.438","REF_FRAME":"TEME","ECCENTRICITY":"0.00011700","EPOCH":"2023-02-07T23:26:21.230304","MEAN_MOTION_DDOT":"0.0000000000000","REV_AT_EPOCH":"1772","MEAN_ANOMALY":"258.7636","MEAN_ELEMENT_THEORY":"SGP4","RCS_SIZE":"LARGE","OBJECT_TYPE":"PAYLOAD","ARG_OF_PERICENTER":"101.3488","TLE_LINE1":"1 54101U 22136BC  23038.97663461 -.00001250  00000-0 -60480-4 0  9995","COUNTRY_CODE":"US","ELEMENT_SET_NO":"999","NORAD_CAT_ID":"54101"},{"EPHEMERIS_TYPE":"0","SITE":"AFETR","RA_OF_ASC_NODE":"350.2543","SEMIMAJOR_AXIS":"6917.783","INCLINATION":"53.2177","LAUNCH_DATE":"2022-10-20","MEAN_MOTION_DOT":"0.00013059","OBJECT_ID":"2022-136BD","APOAPSIS":"540.580","CLASSIFICATION_TYPE":"U","TIME_SYSTEM":"UTC","BSTAR":"0.00083636000000","MEAN_MOTION":"15.08871777","TLE_LINE2":"2 54102  53.2177 350.2543 0001347  89.4788 270.6358 15.08871777 16942","OBJECT_NAME":"STARLINK-5179","CENTER_NAME":"EARTH","EPOCH":"2023-02-07T07:15:50.651712","ECCENTRICITY":"0.00013470","REF_FRAME":"TEME","GP_ID":"224707589","PERIOD":"95.436","DECAY_DATE":null,"FILE":"3777208","PERIAPSIS":"538.716","NORAD_CAT_ID":"54102","ELEMENT_SET_NO":"999","COUNTRY_CODE":"US","TLE_LINE1":"1 54102U 22136BD  23038.30266958  .00013059  00000-0  83636-3 0  9998","ARG_OF_PERICENTER":"89.4788","OBJECT_TYPE":"PAYLOAD","RCS_SIZE":"LARGE","MEAN_ELEMENT_THEORY":"SGP4","MEAN_ANOMALY":"270.6358","REV_AT_EPOCH":"1694","MEAN_MOTION_DDOT":"0.0000000000000"},{"SITE":"AFETR","EPHEMERIS_TYPE":"0","RA_OF_ASC_NODE":"328.0913","SEMIMAJOR_AXIS":"6897.006","INCLINATION":"53.2166","LAUNCH_DATE":"2022-10-20","OBJECT_ID":"2022-136BE","MEAN_MOTION_DOT":"-0.00953939","BSTAR":"-0.05362700000000","MEAN_MOTION":"15.15695039","APOAPSIS":"519.894","TIME_SYSTEM":"UTC","CLASSIFICATION_TYPE":"U","TLE_LINE2":"2 54103  53.2166 328.0913 0001483 101.4059  77.0206 15.15695039  1300","OBJECT_NAME":"STARLINK-5200","CENTER_NAME":"EARTH","ECCENTRICITY":"0.00014830","EPOCH":"2023-02-07T22:00:00.999936","GP_ID":"224746535","PERIOD":"95.006","REF_FRAME":"TEME","DECAY_DATE":null,"FILE":"3777976","PERIAPSIS":"517.848","NORAD_CAT_ID":"54103","TLE_LINE1":"1 54103U 22136BE  23038.91667824 -.00953939  00000-0 -53627-1 0  9990","ARG_OF_PERICENTER":"101.4059","ELEMENT_SET_NO":"999","COUNTRY_CODE":"US","RCS_SIZE":"LARGE","MEAN_ANOMALY":"77.0206","MEAN_ELEMENT_THEORY":"SGP4","OBJECT_TYPE":"PAYLOAD","REV_AT_EPOCH":"130","MEAN_MOTION_DDOT":"0.0000000000000"}];
